ONEWEB-0161             
1 48053U 21025M   26177.46260271  .00000408  00000+0  10813-2 0  9997
2 48053  87.8967 318.3735 0002060  98.8340 261.3022 13.13471276254728
ONEWEB-0158             
1 48054U 21025N   26177.65050155 -.00000228  00000+0 -66041-3 0  9994
2 48054  87.8970 318.3337 0001646 101.2513 258.8801 13.13472055254879
ONEWEB-0157             
1 48055U 21025P   26177.67591594  .00000253  00000+0  65652-3 0  9997
2 48055  87.8968 318.3339 0002215 103.0478 257.0898 13.13471390254814
ONEWEB-0162             
1 48056U 21025Q   26177.65206844 -.00000262  00000+0 -75312-3 0  9993
2 48056  87.8967 318.3395 0001975  94.2256 265.9099 13.13470099254785
ONEWEB-0155             
1 48057U 21025R   26177.65897250 -.00000191  00000+0 -55881-3 0  9991
2 48057  87.8967 318.3342 0001313 105.5308 254.5966 13.13470446254927
ONEWEB-0149             
1 48058U 21025S   26177.68099252  .00000028  00000+0  40942-4 0  9991
2 48058  87.8967 318.3335 0000697  80.0052 280.1156 13.13467965254734
ONEWEB-0148             
1 48059U 21025T   26177.64373558 -.00000189  00000+0 -55381-3 0  9994
2 48059  87.8962 318.3471 0002357  88.3635 271.7764 13.13471002254855
ONEWEB-0160             
1 48060U 21025U   26177.66065432 -.00000116  00000+0 -35319-3 0  9996
2 48060  87.8963 318.3398 0001158  87.8108 272.3154 13.13471951254801
ONEWEB-0163             
1 48061U 21025V   26177.41688738 -.00000249  00000+0 -71626-3 0  9998
2 48061  87.8969 318.3836 0002165 102.3343 257.8028 13.13469103254891
ONEWEB-0159             
1 48062U 21025W   26177.40842779 -.00000214  00000+0 -62030-3 0  9996
2 48062  87.8973 318.3787 0002032 103.4555 256.6800 13.13468634254817
ONEWEB-0164             
1 48063U 21025X   26177.61834493  .00000378  00000+0  10010-2 0  9993
2 48063  87.8973 318.3436 0001792  98.6199 261.5133 13.13470568254824
ONEWEB-0167             
1 48064U 21025Y   26177.64627705 -.00000295  00000+0 -84174-3 0  9996
2 48064  87.8961 318.3471 0002040 117.0031 243.1306 13.13469229254818
ONEWEB-0166             
1 48065U 21025Z   26177.66913773  .00000111  00000+0  26792-3 0  9999
2 48065  87.8971 318.3148 0001940  97.2467 262.8882 13.13472657254895
ONEWEB-0151             
1 48066U 21025AA  26177.67081543  .00000124  00000+0  30433-3 0  9993
2 48066  87.8963 318.3305 0001844 102.1283 258.0053 13.13472114254836
ONEWEB-0170             
1 48067U 21025AB  26177.67927789 -.00001001  00000+0 -27765-2 0  9995
2 48067  87.8957 318.3307 0002079 111.7090 248.4260 13.13471899254792
ONEWEB-0168             
1 48068U 21025AC  26177.66403694  .00000946  00000+0  25548-2 0  9991
2 48068  87.8969 318.3341 0001970  99.8121 260.3231 13.13464892254802
ONEWEB-0173             
1 48069U 21025AD  26177.42705120 -.00000234  00000+0 -67642-3 0  9999
2 48069  87.8963 318.3825 0002120 106.3758 253.7604 13.13471397255014
