[{"OBJECT_NAME":"ONEWEB-0161","OBJECT_ID":"2021-025M","EPOCH":"2026-06-26T11:06:08.874144","MEAN_MOTION":13.13471276,"ECCENTRICITY":0.000206,"INCLINATION":87.8967,"RA_OF_ASC_NODE":318.3735,"ARG_OF_PERICENTER":98.834,"MEAN_ANOMALY":261.3022,"EPHEMERIS_TYPE":0,"CLASSIFICATION_TYPE":"U","NORAD_CAT_ID":48053,"ELEMENT_SET_NO":999,"REV_AT_EPOCH":25472,"BSTAR":0.0010813,"MEAN_MOTION_DOT":4.08e-6,"MEAN_MOTION_DDOT":0},{"OBJECT_NAME":"ONEWEB-0158","OBJECT_ID":"2021-025N","EPOCH":"2026-06-26T15:36:43.333920","MEAN_MOTION":13.13472055,"ECCENTRICITY":0.0001646,"INCLINATION":87.897,"RA_OF_ASC_NODE":318.3337,"ARG_OF_PERICENTER":101.2513,"MEAN_ANOMALY":258.8801,"EPHEMERIS_TYPE":0,"CLASSIFICATION_TYPE":"U","NORAD_CAT_ID":48054,"ELEMENT_SET_NO":999,"REV_AT_EPOCH":25487,"BSTAR":-0.00066041,"MEAN_MOTION_DOT":-2.28e-6,"MEAN_MOTION_DDOT":0},{"OBJECT_NAME":"ONEWEB-0157","OBJECT_ID":"2021-025P","EPOCH":"2026-06-26T16:13:19.137216","MEAN_MOTION":13.1347139,"ECCENTRICITY":0.0002215,"INCLINATION":87.8968,"RA_OF_ASC_NODE":318.3339,"ARG_OF_PERICENTER":103.0478,"MEAN_ANOMALY":257.0898,"EPHEMERIS_TYPE":0,"CLASSIFICATION_TYPE":"U","NORAD_CAT_ID":48055,"ELEMENT_SET_NO":999,"REV_AT_EPOCH":25481,"BSTAR":0.00065652,"MEAN_MOTION_DOT":2.53e-6,"MEAN_MOTION_DDOT":0},{"OBJECT_NAME":"ONEWEB-0162","OBJECT_ID":"2021-025Q","EPOCH":"2026-06-26T15:38:58.713216","MEAN_MOTION":13.13470099,"ECCENTRICITY":0.0001975,"INCLINATION":87.8967,"RA_OF_ASC_NODE":318.3395,"ARG_OF_PERICENTER":94.2256,"MEAN_ANOMALY":265.9099,"EPHEMERIS_TYPE":0,"CLASSIFICATION_TYPE":"U","NORAD_CAT_ID":48056,"ELEMENT_SET_NO":999,"REV_AT_EPOCH":25478,"BSTAR":-0.00075312,"MEAN_MOTION_DOT":-2.62e-6,"MEAN_MOTION_DDOT":0},{"OBJECT_NAME":"ONEWEB-0155","OBJECT_ID":"2021-025R","EPOCH":"2026-06-26T15:48:55.224000","MEAN_MOTION":13.13470446,"ECCENTRICITY":0.0001313,"INCLINATION":87.8967,"RA_OF_ASC_NODE":318.3342,"ARG_OF_PERICENTER":105.5308,"MEAN_ANOMALY":254.5966,"EPHEMERIS_TYPE":0,"CLASSIFICATION_TYPE":"U","NORAD_CAT_ID":48057,"ELEMENT_SET_NO":999,"REV_AT_EPOCH":25492,"BSTAR":-0.00055881,"MEAN_MOTION_DOT":-1.91e-6,"MEAN_MOTION_DDOT":0},{"OBJECT_NAME":"ONEWEB-0149","OBJECT_ID":"2021-025S","EPOCH":"2026-06-26T16:20:37.753728","MEAN_MOTION":13.13467965,"ECCENTRICITY":6.97e-5,"INCLINATION":87.8967,"RA_OF_ASC_NODE":318.3335,"ARG_OF_PERICENTER":80.0052,"MEAN_ANOMALY":280.1156,"EPHEMERIS_TYPE":0,"CLASSIFICATION_TYPE":"U","NORAD_CAT_ID":48058,"ELEMENT_SET_NO":999,"REV_AT_EPOCH":25473,"BSTAR":4.0942e-5,"MEAN_MOTION_DOT":2.8e-7,"MEAN_MOTION_DDOT":0},{"OBJECT_NAME":"ONEWEB-0148","OBJECT_ID":"2021-025T","EPOCH":"2026-06-26T15:26:58.754112","MEAN_MOTION":13.13471002,"ECCENTRICITY":0.0002357,"INCLINATION":87.8962,"RA_OF_ASC_NODE":318.3471,"ARG_OF_PERICENTER":88.3635,"MEAN_ANOMALY":271.7764,"EPHEMERIS_TYPE":0,"CLASSIFICATION_TYPE":"U","NORAD_CAT_ID":48059,"ELEMENT_SET_NO":999,"REV_AT_EPOCH":25485,"BSTAR":-0.00055381,"MEAN_MOTION_DOT":-1.89e-6,"MEAN_MOTION_DDOT":0},{"OBJECT_NAME":"ONEWEB-0160","OBJECT_ID":"2021-025U","EPOCH":"2026-06-26T15:51:20.533248","MEAN_MOTION":13.13471951,"ECCENTRICITY":0.0001158,"INCLINATION":87.8963,"RA_OF_ASC_NODE":318.3398,"ARG_OF_PERICENTER":87.8108,"MEAN_ANOMALY":272.3154,"EPHEMERIS_TYPE":0,"CLASSIFICATION_TYPE":"U","NORAD_CAT_ID":48060,"ELEMENT_SET_NO":999,"REV_AT_EPOCH":25480,"BSTAR":-0.00035319,"MEAN_MOTION_DOT":-1.16e-6,"MEAN_MOTION_DDOT":0},{"OBJECT_NAME":"ONEWEB-0163","OBJECT_ID":"2021-025V","EPOCH":"2026-06-26T10:00:19.069632","MEAN_MOTION":13.13469103,"ECCENTRICITY":0.0002165,"INCLINATION":87.8969,"RA_OF_ASC_NODE":318.3836,"ARG_OF_PERICENTER":102.3343,"MEAN_ANOMALY":257.8028,"EPHEMERIS_TYPE":0,"CLASSIFICATION_TYPE":"U","NORAD_CAT_ID":48061,"ELEMENT_SET_NO":999,"REV_AT_EPOCH":25489,"BSTAR":-0.00071626,"MEAN_MOTION_DOT":-2.49e-6,"MEAN_MOTION_DDOT":0},{"OBJECT_NAME":"ONEWEB-0159","OBJECT_ID":"2021-025W","EPOCH":"2026-06-26T09:48:08.161056","MEAN_MOTION":13.13468634,"ECCENTRICITY":0.0002032,"INCLINATION":87.8973,"RA_OF_ASC_NODE":318.3787,"ARG_OF_PERICENTER":103.4555,"MEAN_ANOMALY":256.68,"EPHEMERIS_TYPE":0,"CLASSIFICATION_TYPE":"U","NORAD_CAT_ID":48062,"ELEMENT_SET_NO":999,"REV_AT_EPOCH":25481,"BSTAR":-0.0006203,"MEAN_MOTION_DOT":-2.14e-6,"MEAN_MOTION_DDOT":0},{"OBJECT_NAME":"ONEWEB-0164","OBJECT_ID":"2021-025X","EPOCH":"2026-06-26T14:50:25.001952","MEAN_MOTION":13.13470568,"ECCENTRICITY":0.0001792,"INCLINATION":87.8973,"RA_OF_ASC_NODE":318.3436,"ARG_OF_PERICENTER":98.6199,"MEAN_ANOMALY":261.5133,"EPHEMERIS_TYPE":0,"CLASSIFICATION_TYPE":"U","NORAD_CAT_ID":48063,"ELEMENT_SET_NO":999,"REV_AT_EPOCH":25482,"BSTAR":0.001001,"MEAN_MOTION_DOT":3.78e-6,"MEAN_MOTION_DDOT":0},{"OBJECT_NAME":"ONEWEB-0167","OBJECT_ID":"2021-025Y","EPOCH":"2026-06-26T15:30:38.337120","MEAN_MOTION":13.13469229,"ECCENTRICITY":0.000204,"INCLINATION":87.8961,"RA_OF_ASC_NODE":318.3471,"ARG_OF_PERICENTER":117.0031,"MEAN_ANOMALY":243.1306,"EPHEMERIS_TYPE":0,"CLASSIFICATION_TYPE":"U","NORAD_CAT_ID":48064,"ELEMENT_SET_NO":999,"REV_AT_EPOCH":25481,"BSTAR":-0.00084174,"MEAN_MOTION_DOT":-2.95e-6,"MEAN_MOTION_DDOT":0},{"OBJECT_NAME":"ONEWEB-0166","OBJECT_ID":"2021-025Z","EPOCH":"2026-06-26T16:03:33.499872","MEAN_MOTION":13.13472657,"ECCENTRICITY":0.000194,"INCLINATION":87.8971,"RA_OF_ASC_NODE":318.3148,"ARG_OF_PERICENTER":97.2467,"MEAN_ANOMALY":262.8882,"EPHEMERIS_TYPE":0,"CLASSIFICATION_TYPE":"U","NORAD_CAT_ID":48065,"ELEMENT_SET_NO":999,"REV_AT_EPOCH":25489,"BSTAR":0.00026792,"MEAN_MOTION_DOT":1.11e-6,"MEAN_MOTION_DDOT":0},{"OBJECT_NAME":"ONEWEB-0151","OBJECT_ID":"2021-025AA","EPOCH":"2026-06-26T16:05:58.453152","MEAN_MOTION":13.13472114,"ECCENTRICITY":0.0001844,"INCLINATION":87.8963,"RA_OF_ASC_NODE":318.3305,"ARG_OF_PERICENTER":102.1283,"MEAN_ANOMALY":258.0053,"EPHEMERIS_TYPE":0,"CLASSIFICATION_TYPE":"U","NORAD_CAT_ID":48066,"ELEMENT_SET_NO":999,"REV_AT_EPOCH":25483,"BSTAR":0.00030433,"MEAN_MOTION_DOT":1.24e-6,"MEAN_MOTION_DDOT":0},{"OBJECT_NAME":"ONEWEB-0170","OBJECT_ID":"2021-025AB","EPOCH":"2026-06-26T16:18:09.609696","MEAN_MOTION":13.13471899,"ECCENTRICITY":0.0002079,"INCLINATION":87.8957,"RA_OF_ASC_NODE":318.3307,"ARG_OF_PERICENTER":111.709,"MEAN_ANOMALY":248.426,"EPHEMERIS_TYPE":0,"CLASSIFICATION_TYPE":"U","NORAD_CAT_ID":48067,"ELEMENT_SET_NO":999,"REV_AT_EPOCH":25479,"BSTAR":-0.0027765,"MEAN_MOTION_DOT":-1.001e-5,"MEAN_MOTION_DDOT":0},{"OBJECT_NAME":"ONEWEB-0168","OBJECT_ID":"2021-025AC","EPOCH":"2026-06-26T15:56:12.791616","MEAN_MOTION":13.13464892,"ECCENTRICITY":0.000197,"INCLINATION":87.8969,"RA_OF_ASC_NODE":318.3341,"ARG_OF_PERICENTER":99.8121,"MEAN_ANOMALY":260.3231,"EPHEMERIS_TYPE":0,"CLASSIFICATION_TYPE":"U","NORAD_CAT_ID":48068,"ELEMENT_SET_NO":999,"REV_AT_EPOCH":25480,"BSTAR":0.0025548,"MEAN_MOTION_DOT":9.46e-6,"MEAN_MOTION_DDOT":0},{"OBJECT_NAME":"ONEWEB-0173","OBJECT_ID":"2021-025AD","EPOCH":"2026-06-26T10:14:57.223680","MEAN_MOTION":13.13471397,"ECCENTRICITY":0.000212,"INCLINATION":87.8963,"RA_OF_ASC_NODE":318.3825,"ARG_OF_PERICENTER":106.3758,"MEAN_ANOMALY":253.7604,"EPHEMERIS_TYPE":0,"CLASSIFICATION_TYPE":"U","NORAD_CAT_ID":48069,"ELEMENT_SET_NO":999,"REV_AT_EPOCH":25501,"BSTAR":-0.00067642,"MEAN_MOTION_DOT":-2.34e-6,"MEAN_MOTION_DDOT":0}]
